NORAD_CAT_ID,OBJECT_NAME,OBJECT_TYPE,EPOCH,MEAN_MOTION,ECCENTRICITY,INCLINATION,RA_OF_ASC_NODE,ARG_OF_PERICENTER,MEAN_ANOMALY,BSTAR,MEAN_MOTION_DOT,MEAN_MOTION_DDOT,TLE_LINE0,TLE_LINE1,TLE_LINE2,SEMIMAJOR_AXIS,PERIOD,APOGEE,PERIGEE,DECAYED
55954.0,STARLINK-5892,PAYLOAD,2024-02-07 16:26:59,14.9832779,0.0002848,70.0005,23.1534,270.5857,89.4975,-2.9775e-05,-4.48e-06,0.0,0 STARLINK-5892,1 55954U 23037AS  24038.68541614 -.00000448  00000-0 -29775-4 0  9997,2 55954  70.0005  23.1534 0002848 270.5857  89.4975 14.98327790 50485,6950.2,96.107,574.044,570.085,0.0
55954.0,STARLINK-5892,PAYLOAD,2024-02-08 03:39:56,14.98330577,0.000276,70.0005,21.9756,269.1772,90.9071,-2.319e-05,-3.7e-06,0.0,0 STARLINK-5892,1 55954U 23037AS  24039.15273440 -.00000370  00000-0 -23190-4 0  9998,2 55954  70.0005  21.9756 0002760 269.1772  90.9071 14.98330577 50896,6950.191,96.107,573.974,570.138,0.0
55954.0,STARLINK-5892,PAYLOAD,2024-02-08 08:28:20,14.98333452,0.0002776,70.0006,21.4705,268.7293,91.3548,8.6313e-06,1e-07,0.0,0 STARLINK-5892,1 55954U 23037AS  24039.35301138  .00000010  00000-0  86313-5 0  9992,2 55954  70.0006  21.4705 0002776 268.7293  91.3548 14.98333452 50581,6950.182,96.107,573.977,570.118,0.0
55954.0,STARLINK-5892,PAYLOAD,2024-02-08 22:53:33,14.98327798,0.0002825,70.0006,19.956,269.3832,90.7003,2.3769e-05,1.91e-06,0.0,0 STARLINK-5892,1 55954U 23037AS  24039.95385424  .00000191  00000-0  23769-4 0  9993,2 55954  70.0006  19.9560 0002825 269.3832  90.7003 14.98327798 50678,6950.2,96.107,574.028,570.101,0.0
55954.0,STARLINK-5892,PAYLOAD,2024-02-09 03:41:57,14.98326962,0.0002844,70.0005,19.4511,269.5066,90.5767,1.1659e-05,4.6e-07,0.0,0 STARLINK-5892,1 55954U 23037AS  24040.15413534  .00000046  00000-0  11659-4 0  9995,2 55954  70.0005  19.4511 0002844 269.5066  90.5767 14.98326962 51049,6950.202,96.107,574.044,570.091,0.0
55954.0,STARLINK-5892,PAYLOAD,2024-02-09 08:30:21,14.98331349,0.0002826,70.0006,18.9462,269.6505,90.433,5.9065e-05,6.12e-06,0.0,0 STARLINK-5892,1 55954U 23037AS  24040.35441128  .00000612  00000-0  59065-4 0  9999,2 55954  70.0006  18.9462 0002826 269.6505  90.4330 14.98331349 50733,6950.189,96.107,574.018,570.09,0.0
55954.0,STARLINK-5892,PAYLOAD,2024-02-10 08:32:22,14.98331428,0.0002656,70.0013,16.4227,267.9892,92.0963,1.7464e-06,-7.2e-07,0.0,0 STARLINK-5892,1 55954U 23037AS  24041.35581360 -.00000072  00000-0  17464-5 0  9992,2 55954  70.0013  16.4227 0002656 267.9892  92.0963 14.98331428 51227,6950.188,96.107,573.899,570.208,0.0
55954.0,STARLINK-5892,PAYLOAD,2024-02-10 22:57:34,14.98329916,0.000253,70.0015,14.9079,259.0393,101.0482,1.3089e-05,6.3e-07,0.0,0 STARLINK-5892,1 55954U 23037AS  24041.95665352  .00000063  00000-0  13089-4 0  9999,2 55954  70.0015  14.9079 0002530 259.0393 101.0482 14.98329916 50973,6950.193,96.107,573.817,570.3,0.0
55954.0,STARLINK-5892,PAYLOAD,2024-02-11 06:58:15,14.98328286,0.0002582,70.0015,14.0667,259.1731,100.9138,-1.042e-05,-2.17e-06,0.0,0 STARLINK-5892,1 55954U 23037AS  24042.29045534 -.00000217  00000-0 -10420-4 0  9990,2 55954  70.0015  14.0667 0002582 259.1731 100.9138 14.98328286 51023,6950.198,96.107,573.858,570.269,0.0
55954.0,STARLINK-5892,PAYLOAD,2024-02-12 03:47:59,14.98333517,0.0002691,70.0015,11.8783,260.8861,99.1993,8.3298e-05,9.01e-06,0.0,0 STARLINK-5892,1 55954U 23037AS  24043.15832800  .00000901  00000-0  83298-4 0  9997,2 55954  70.0015  11.8783 0002691 260.8861  99.1993 14.98333517 51493,6950.182,96.107,573.917,570.177,0.0
55954.0,STARLINK-5892,PAYLOAD,2024-02-12 07:00:15,14.98332735,0.0002661,70.0015,11.5421,257.4205,102.6657,0.00020822,2.392e-05,0.0,0 STARLINK-5892,1 55954U 23037AS  24043.29184475  .00002392  00000-0  20822-3 0  9999,2 55954  70.0015  11.5421 0002661 257.4205 102.6657 14.98332735 51173,6950.184,96.107,573.899,570.2,0.0
55954.0,STARLINK-5892,PAYLOAD,2024-02-12 23:01:36,14.98329935,0.0002568,70.0043,9.8639,222.4832,137.6129,3.7668e-05,3.57e-06,0.0,0 STARLINK-5892,1 55954U 23037AS  24043.95944892  .00000357  00000-0  37668-4 0  9995,2 55954  70.0043   9.8639 0002568 222.4832 137.6129 14.98329935 51270,6950.193,96.107,573.843,570.273,0.0
55954.0,STARLINK-5892,PAYLOAD,2024-02-13 03:49:59,14.98340024,0.0002552,70.002,9.3549,257.855,102.2324,0.00012595,1.411e-05,0.0,0 STARLINK-5892,1 55954U 23037AS  24044.15972150  .00001411  00000-0  12595-3 0  9999,2 55954  70.0020   9.3549 0002552 257.8550 102.2324 14.98340024 51640,6950.162,96.106,573.801,570.253,0.0
55954.0,STARLINK-5892,PAYLOAD,2024-02-13 07:02:16,14.98330582,0.0002885,70.0011,9.0162,263.8668,96.2162,2.7908e-05,2.4e-06,0.0,0 STARLINK-5892,1 55954U 23037AS  24044.29324980  .00000240  00000-0  27908-4 0  9990,2 55954  70.0011   9.0162 0002885 263.8668  96.2162 14.98330582 51666,6950.191,96.107,574.061,570.051,0.0
55954.0,STARLINK-5892,PAYLOAD,2024-02-13 23:03:37,14.98330492,0.0002885,70.0013,7.333,265.7342,94.3488,-0.00010099,-1.298e-05,0.0,0 STARLINK-5892,1 55954U 23037AS  24044.96085380 -.00001298  00000-0 -10099-3 0  9990,2 55954  70.0013   7.3330 0002885 265.7342  94.3488 14.98330492 51420,6950.191,96.107,574.061,570.051,0.0
55954.0,STARLINK-5892,PAYLOAD,2024-02-14 03:52:01,14.98340889,0.0002953,70.0011,6.8282,265.2379,94.8443,2.0589e-05,1.53e-06,0.0,0 STARLINK-5892,1 55954U 23037AS  24045.16112358  .00000153  00000-0  20589-4 0  9992,2 55954  70.0011   6.8282 0002953 265.2379  94.8443 14.98340889 51796,6950.159,96.106,574.077,569.972,0.0
55954.0,STARLINK-5892,PAYLOAD,2024-02-14 07:04:17,14.98340815,0.0003109,70.001,6.4913,268.9381,91.1422,3.3733e-05,3.1e-06,0.0,0 STARLINK-5892,1 55954U 23037AS  24045.29464257  .00000310  00000-0  33733-4 0  9994,2 55954  70.0010   6.4913 0003109 268.9381  91.1422 14.98340815 51470,6950.159,96.106,574.185,569.864,0.0
55954.0,STARLINK-5892,PAYLOAD,2024-02-14 21:29:30,14.98320112,0.0002579,70.0019,4.9747,257.793,102.294,0.00010864,1.203e-05,0.0,0 STARLINK-5892,1 55954U 23037AS  24045.89549228  .00001203  00000-0  10864-3 0  9993,2 55954  70.0019   4.9747 0002579 257.7930 102.2940 14.98320112 51560,6950.223,96.108,573.881,570.296,0.0
55954.0,STARLINK-5892,PAYLOAD,2024-02-15 03:54:02,14.98328986,0.0003196,70.0005,4.3038,268.5734,91.5059,6.5165e-05,6.85e-06,0.0,0 STARLINK-5892,1 55954U 23037AS  24046.16252923  .00000685  00000-0  65165-4 0  9995,2 55954  70.0005   4.3038 0003196 268.5734  91.5059 14.98328986 51940,6950.196,96.107,574.282,569.84,0.0
55954.0,STARLINK-5892,PAYLOAD,2024-02-15 07:06:18,14.98332495,0.0002677,70.0021,3.9659,264.5907,95.4947,0.00022192,2.556e-05,0.0,0 STARLINK-5892,1 55954U 23037AS  24046.29604292  .00002556  00000-0  22192-3 0  9990,2 55954  70.0021   3.9659 0002677 264.5907  95.4947 14.98332495 51627,6950.185,96.107,573.911,570.19,0.0
55954.0,STARLINK-5892,PAYLOAD,2024-02-15 19:55:22,14.9833685,0.000207,70.0023,2.621,288.5685,71.5249,0.0001399,1.577e-05,0.0,0 STARLINK-5892,1 55954U 23037AS  24046.83012362  .00001577  00000-0  13990-3 0  9999,2 55954  70.0023   2.6210 0002070 288.5685  71.5249 14.98336850 51702,6950.172,96.107,573.475,570.598,0.0
55954.0,STARLINK-5892,PAYLOAD,2024-02-16 03:56:03,14.98327865,0.0003064,70.0012,1.7788,269.6916,90.3892,-6.8729e-05,-9.13e-06,0.0,0 STARLINK-5892,1 55954U 23037AS  24047.16393351 -.00000913  00000-0 -68729-4 0  9992,2 55954  70.0012   1.7788 0003064 269.6916  90.3892 14.98327865 52093,6950.199,96.107,574.194,569.935,0.0
55954.0,STARLINK-5892,PAYLOAD,2024-02-16 13:32:52,14.98332281,0.0002983,70.0012,0.768,271.8878,88.1939,-8.7718e-05,-1.14e-05,0.0,0 STARLINK-5892,1 55954U 23037AS  24047.56449103 -.00001140  00000-0 -87718-4 0  9995,2 55954  70.0012   0.7680 0002983 271.8878  88.1939 14.98332281 51818,6950.186,96.107,574.124,569.978,0.0
55954.0,STARLINK-5892,PAYLOAD,2024-02-16 21:33:32,14.98325201,0.0002843,70.0015,359.927,273.4666,86.6168,3.4115e-05,3.14e-06,0.0,0 STARLINK-5892,1 55954U 23037AS  24047.89829309  .00000314  00000-0  34115-4 0  9994,2 55954  70.0015 359.9270 0002843 273.4666  86.6168 14.98325201 51869,6950.208,96.107,574.049,570.097,0.0
55954.0,STARLINK-5892,PAYLOAD,2024-02-17 03:58:04,14.98328584,0.0002813,70.0016,359.2535,272.4288,87.6549,5.717e-05,5.89e-06,0.0,0 STARLINK-5892,1 55954U 23037AS  24048.16533090  .00000589  00000-0  57170-4 0  9994,2 55954  70.0016 359.2535 0002813 272.4288  87.6549 14.98328584 52247,6950.197,96.107,574.017,570.107,0.0
55954.0,STARLINK-5892,PAYLOAD,2024-02-17 13:34:52,14.9834006,0.0002723,70.0021,358.2431,271.1436,88.9411,-0.00011714,-1.491e-05,0.0,0 STARLINK-5892,1 55954U 23037AS  24048.56588679 -.00001491  00000-0 -11714-3 0  9999,2 55954  70.0021 358.2431 0002723 271.1436  88.9411 14.98340060 51961,6950.162,96.106,573.919,570.134,0.0
55954.0,STARLINK-5892,PAYLOAD,2024-02-17 21:35:32,14.98335993,0.0002926,70.0025,357.4043,271.0485,89.0338,0.00021297,2.449e-05,0.0,0 STARLINK-5892,1 55954U 23037AS  24048.89967868  .00002449  00000-0  21297-3 0  9995,2 55954  70.0025 357.4043 0002926 271.0485  89.0338 14.98335993 52019,6950.174,96.107,574.073,570.006,0.0
55954.0,STARLINK-5892,PAYLOAD,2024-02-18 04:00:03,14.98350145,0.0002758,70.0015,356.7289,271.0117,89.0726,0.00028861,3.354e-05,0.0,0 STARLINK-5892,1 55954U 23037AS  24049.16670542  .00003354  00000-0  28861-3 0  9996,2 55954  70.0015 356.7289 0002758 271.0117  89.0726 14.98350145 52395,6950.131,96.106,573.912,570.079,0.0
55954.0,STARLINK-5892,PAYLOAD,2024-02-18 13:36:53,14.9833086,0.0002847,70.0013,355.7187,280.0531,80.0306,-1.8765e-06,-1.15e-06,0.0,0 STARLINK-5892,1 55954U 23037AS  24049.56728123 -.00000115  00000-0 -18765-5 0  9997,2 55954  70.0013 355.7187 0002847 280.0531  80.0306 14.98330860 52115,6950.19,96.107,574.034,570.077,0.0
55954.0,STARLINK-5892,PAYLOAD,2024-02-18 23:13:42,14.98316656,0.0002662,70.0022,354.7093,276.8763,83.2093,-0.00018566,-2.307e-05,0.0,0 STARLINK-5892,1 55954U 23037AS  24049.96785629 -.00002307  00000-0 -18566-3 0  9997,2 55954  70.0022 354.7093 0002662 276.8763  83.2093 14.98316656 52176,6950.234,96.108,573.949,570.249,0.0
